NORAD_CAT_ID,OBJECT_NAME,OBJECT_TYPE,EPOCH,MEAN_MOTION,ECCENTRICITY,INCLINATION,RA_OF_ASC_NODE,ARG_OF_PERICENTER,MEAN_ANOMALY,BSTAR,MEAN_MOTION_DOT,MEAN_MOTION_DDOT,TLE_LINE0,TLE_LINE1,TLE_LINE2,SEMIMAJOR_AXIS,PERIOD,APOGEE,PERIGEE,DECAYED
53291.0,STARLINK-4166,PAYLOAD,2023-01-06 07:38:33,15.08845171,0.0002002,53.2168,339.0051,46.1791,313.9366,0.0014818,0.00023377,0.0,0 STARLINK-4166,1 53291U 22086BB  23006.31844306  .00023377  00000-0  14818-2 0  9994,2 53291  53.2168 339.0051 0002002  46.1791 313.9366 15.08845171 26223,6917.865,95.437,541.115,538.345,0.0
53291.0,STARLINK-4166,PAYLOAD,2023-01-06 18:46:15,15.08837347,0.000187,53.2174,336.9238,46.8354,313.2794,0.00055072,8.487e-05,0.0,0 STARLINK-4166,1 53291U 22086BB  23006.78212657  .00008487  00000-0  55072-3 0  9996,2 53291  53.2174 336.9238 0001870  46.8354 313.2794 15.08837347 26298,6917.888000000001,95.438,541.047,538.46,0.0
53291.0,STARLINK-4166,PAYLOAD,2023-01-06 20:21:38,15.08839517,0.0001788,53.2175,336.6261,48.9181,311.1965,0.00069889,0.00010852,0.0,0 STARLINK-4166,1 53291U 22086BB  23006.84836687  .00010852  00000-0  69889-3 0  9998,2 53291  53.2175 336.6261 0001788  48.9181 311.1965 15.08839517 26468,6917.882,95.438,540.984,538.51,0.0
53291.0,STARLINK-4166,PAYLOAD,2023-01-07 04:18:34,15.08842709,0.0001857,53.2177,335.1399,47.2756,312.8392,0.0010964,0.00017206,0.0,0 STARLINK-4166,1 53291U 22086BB  23007.17956808  .00017206  00000-0  10964-2 0  9992,2 53291  53.2177 335.1399 0001857  47.2756 312.8392 15.08842709 26518,6917.871999999999,95.437,541.0219999999998,538.452,0.0
53291.0,STARLINK-4166,PAYLOAD,2023-01-07 07:29:20,15.08852438,0.0001888,53.2177,334.5445,46.28,313.8348,0.00094885,0.0001485,0.0,0 STARLINK-4166,1 53291U 22086BB  23007.31204606  .00014850  00000-0  94885-3 0  9997,2 53291  53.2177 334.5445 0001888  46.2800 313.8348 15.08852438 26530,6917.842,95.437,541.013,538.401,0.0
53291.0,STARLINK-4166,PAYLOAD,2023-01-08 04:09:21,15.08864047,0.0002447,53.2177,330.6777,69.1289,290.9965,0.0011545,0.00018146,0.0,0 STARLINK-4166,1 53291U 22086BB  23008.17316452  .00018146  00000-0  11545-2 0  9998,2 53291  53.2177 330.6777 0002447  69.1289 290.9965 15.08864047 26508,6917.807,95.436,541.365,537.979,0.0
53291.0,STARLINK-4166,PAYLOAD,2023-01-08 07:20:07,15.08857026,0.0001839,53.2179,330.0841,53.7034,306.4128,0.00064029,9.922e-05,0.0,0 STARLINK-4166,1 53291U 22086BB  23008.30564331  .00009922  00000-0  64029-3 0  9992,2 53291  53.2179 330.0841 0001839  53.7034 306.4128 15.08857026 26522,6917.828,95.436,540.966,538.4209999999998,0.0
53291.0,STARLINK-4166,PAYLOAD,2023-01-08 21:38:35,15.08846963,0.0002552,53.2182,327.4078,68.2577,291.8686,0.00034065,5.138e-05,0.0,0 STARLINK-4166,1 53291U 22086BB  23008.90180488  .00005138  00000-0  34065-3 0  9997,2 53291  53.2182 327.4078 0002552  68.2577 291.8686 15.08846963 26775,6917.859,95.437,541.49,537.9590000000002,0.0
53291.0,STARLINK-4166,PAYLOAD,2023-01-09 04:00:08,15.08851424,0.000219,53.2182,326.2166,63.0816,297.04,0.00037696,5.718e-05,0.0,0 STARLINK-4166,1 53291U 22086BB  23009.16676345  .00005718  00000-0  37696-3 0  9995,2 53291  53.2182 326.2166 0002190  63.0816 297.0400 15.08851424 26654,6917.845,95.437,541.225,538.195,0.0
53291.0,STARLINK-4166,PAYLOAD,2023-01-09 13:32:27,15.08852481,0.0001345,53.2188,324.4339,35.0588,325.0492,0.00050891,7.823e-05,0.0,0 STARLINK-4166,1 53291U 22086BB  23009.56420167  .00007823  00000-0  50891-3 0  9999,2 53291  53.2188 324.4339 0001345  35.0588 325.0492 15.08852481 26879,6917.842,95.437,540.638,538.7769999999998,0.0
53291.0,STARLINK-4166,PAYLOAD,2023-01-09 21:29:23,15.08838311,0.0001341,53.2188,322.9484,66.0954,294.0178,-3.8729e-05,-9.04e-06,0.0,0 STARLINK-4166,1 53291U 22086BB  23009.89540525 -.00000904  00000-0 -38729-4 0  9998,2 53291  53.2188 322.9484 0001341  66.0954 294.0178 15.08838311 26928,6917.886,95.438,540.678,538.823,0.0
53291.0,STARLINK-4166,PAYLOAD,2023-01-10 03:50:55,15.08844531,0.0001515,53.217,321.7608,71.9877,288.128,0.0004425,6.762e-05,0.0,0 STARLINK-4166,1 53291U 22086BB  23010.16036454  .00006762  00000-0  44250-3 0  9992,2 53291  53.2170 321.7608 0001515  71.9877 288.1280 15.08844531 26802,6917.866999999998,95.437,540.78,538.683,0.0
53291.0,STARLINK-4166,PAYLOAD,2023-01-10 13:23:14,15.08842401,0.0001477,53.2172,319.976,75.2587,284.8569,0.00034934,5.277e-05,0.0,0 STARLINK-4166,1 53291U 22086BB  23010.55780543  .00005277  00000-0  34934-3 0  9998,2 53291  53.2172 319.9760 0001477  75.2587 284.8569 15.08842401 27026,6917.873000000001,95.437,540.76,538.716,0.0
53291.0,STARLINK-4166,PAYLOAD,2023-01-11 03:41:42,15.08853658,0.0001445,53.2166,317.3008,83.3917,276.7239,0.00032265,4.853e-05,0.0,0 STARLINK-4166,1 53291U 22086BB  23011.15396069  .00004853  00000-0  32265-3 0  9995,2 53291  53.2166 317.3008 0001445  83.3917 276.7239 15.08853658 26959,6917.839,95.437,540.703,538.7040000000002,0.0
53291.0,STARLINK-4166,PAYLOAD,2023-01-12 01:57:06,15.08843664,0.0001459,53.218,313.1359,79.6735,280.4422,0.00012918,1.769e-05,0.0,0 STARLINK-4166,1 53291U 22086BB  23012.08132505  .00001769  00000-0  12918-3 0  9997,2 53291  53.2180 313.1359 0001459  79.6735 280.4422 15.08843664 27097,6917.8690000000015,95.437,540.744,538.725,0.0
53291.0,STARLINK-4166,PAYLOAD,2023-01-12 19:26:20,15.08841363,0.0001561,53.216,309.8678,84.8554,275.2617,0.00011582,1.556e-05,0.0,0 STARLINK-4166,1 53291U 22086BB  23012.80996369  .00001556  00000-0  11582-3 0  9993,2 53291  53.2160 309.8678 0001561  84.8554 275.2617 15.08841363 27364,6917.876,95.437,540.821,538.661,0.0
53291.0,STARLINK-4166,PAYLOAD,2023-01-13 00:12:30,15.08835083,0.0001286999999999,53.2167,308.9738,85.8845,274.2294,4.4353e-05,4.18e-06,0.0,0 STARLINK-4166,1 53291U 22086BB  23013.00868897  .00000418  00000-0  44353-4 0  9999,2 53291  53.2167 308.9738 0001287  85.8845 274.2294 15.08835083 27235,6917.895,95.438,540.651,538.87,0.0
53291.0,STARLINK-4166,PAYLOAD,2023-01-13 03:23:16,15.08839201,0.0001320999999999,53.2163,308.379,86.7551,273.3593,0.00042955,6.555e-05,0.0,0 STARLINK-4166,1 53291U 22086BB  23013.14116832  .00006555  00000-0  42955-3 0  9992,2 53291  53.2163 308.3790 0001321  86.7551 273.3593 15.08839201 27414,6917.883000000001,95.438,540.6619999999999,538.8340000000001,0.0
53291.0,STARLINK-4166,PAYLOAD,2023-01-14 04:49:26,15.08860863,0.0001351999999999,53.2168,303.6186,90.5291,269.5856,0.00074715,0.0001163,0.0,0 STARLINK-4166,1 53291U 22086BB  23014.20100635  .00011630  00000-0  74715-3 0  9993,2 53291  53.2168 303.6186 0001352  90.5291 269.5856 15.08860863 27411,6917.816999999999,95.436,540.617,538.746,0.0
53291.0,STARLINK-4166,PAYLOAD,2023-01-14 12:46:22,15.08848971,0.0001231999999999,53.215,302.1349,87.9984,272.1149,0.00042701,6.516e-05,0.0,0 STARLINK-4166,1 53291U 22086BB  23014.53220867  .00006516  00000-0  42701-3 0  9996,2 53291  53.2150 302.1349 0001232  87.9984 272.1149 15.08848971 27469,6917.853,95.437,540.57,538.866,0.0
53291.0,STARLINK-4166,PAYLOAD,2023-01-15 04:40:13,15.08860278,0.0001625,53.2173,299.1583,94.0324,266.0854,0.00061991,9.597e-05,0.0,0 STARLINK-4166,1 53291U 22086BB  23015.19460224  .00009597  00000-0  61991-3 0  9996,2 53291  53.2173 299.1583 0001625  94.0324 266.0854 15.08860278 27720,6917.818,95.436,540.808,538.559,0.0
53291.0,STARLINK-4166,PAYLOAD,2023-01-15 14:12:32,15.08849076,0.0001458,53.2165,297.3755,99.2726,260.8431,8.7175e-05,1.1e-05,0.0,0 STARLINK-4166,1 53291U 22086BB  23015.59204280  .00001100  00000-0  87175-4 0  9993,2 53291  53.2165 297.3755 0001458  99.2726 260.8431 15.08849076 27624,6917.853,95.437,540.726,538.7090000000001,0.0
53291.0,STARLINK-4166,PAYLOAD,2023-01-15 22:09:27,15.08856168,0.0001091,53.2171,295.8876,113.6184,246.4923,0.00040053,6.095e-05,0.0,0 STARLINK-4166,1 53291U 22086BB  23015.92323842  .00006095  00000-0  40053-3 0  9997,2 53291  53.2171 295.8876 0001091 113.6184 246.4923 15.08856168 27839,6917.831,95.437,540.451,538.941,0.0
53291.0,STARLINK-4166,PAYLOAD,2023-01-16 01:20:13,15.08869882,8.32e-05,53.2172,295.2929,72.233,287.8752,0.00098967,0.00015511,0.0,0 STARLINK-4166,1 53291U 22086BB  23016.05571645  .00015511  00000-0  98967-3 0  9998,2 53291  53.2172 295.2929 0000832  72.2330 287.8752 15.08869882 27698,6917.789000000001,95.436,540.23,539.078,0.0
53291.0,STARLINK-4166,PAYLOAD,2023-01-16 10:52:32,15.08848787,0.0001100999999999,53.2174,293.5097,70.1209,289.9901,0.00038232,5.803e-05,0.0,0 STARLINK-4166,1 53291U 22086BB  23016.45315969  .00005803  00000-0  38232-3 0  9999,2 53291  53.2174 293.5097 0001101  70.1209 289.9901 15.08848787 27756,6917.854,95.437,540.48,538.957,0.0
53291.0,STARLINK-4166,PAYLOAD,2023-01-16 18:49:29,15.08819039,0.0001185,53.2174,292.0233,107.2491,252.863,-0.00051232,-8.427e-05,0.0,0 STARLINK-4166,1 53291U 22086BB  23016.78436602 -.00008427  00000-0 -51232-3 0  9995,2 53291  53.2174 292.0233 0001185 107.2491 252.8630 15.08819039 27801,6917.944,95.439,540.629,538.99,0.0
53291.0,STARLINK-4166,PAYLOAD,2023-01-17 02:46:24,15.08833647,8.7e-05,53.2173,290.5352,100.6199,259.4891,0.00022498,3.294e-05,0.0,0 STARLINK-4166,1 53291U 22086BB  23017.11556706  .00003294  00000-0  22498-3 0  9998,2 53291  53.2173 290.5352 0000870 100.6199 259.4891 15.08833647 27855,6917.9,95.438,540.367,539.163,0.0
53291.0,STARLINK-4166,PAYLOAD,2023-01-17 10:43:21,15.08825816,9.56e-05,53.218,289.0493,102.0377,258.0722,0.00038041,5.769e-05,0.0,0 STARLINK-4166,1 53291U 22086BB  23017.44677265  .00005769  00000-0  38041-3 0  9998,2 53291  53.2180 289.0493 0000956 102.0377 258.0722 15.08825816 28062,6917.924,95.438,540.45,539.127,0.0
53291.0,STARLINK-4166,PAYLOAD,2023-01-17 21:51:03,15.08824141,0.0001035,53.2184,286.9692,110.1542,249.9562,0.0001501,2.101e-05,0.0,0 STARLINK-4166,1 53291U 22086BB  23017.91045825  .00002101  00000-0  15010-3 0  9999,2 53291  53.2184 286.9692 0001035 110.1542 249.9562 15.08824141 28135,6917.929,95.439,540.51,539.078,0.0
